{
  "type": "FeatureCollection",
  "features": [
    {
      "type": "Feature",
      "properties": {
        "norad_id": 34728,
        "name": "COSMOS 2251 DEB",
        "group": "cosmos-2251-debris",
        "lat": -38.53804726662235,
        "lon": 55.51314976989222,
        "alt_km": 690.8035442120799,
        "timestamp": "2025-12-27T21:25:02.911841+00:00",
        "meta_object_name": "COSMOS 2251 DEB",
        "meta_object_id": "1993-036YW",
        "meta_epoch": "2025-12-26T18:18:10.094976",
        "meta_mean_motion": 14.70962251,
        "meta_eccentricity": 0.00417457,
        "meta_inclination": 74.0156,
        "meta_ra_of_asc_node": 224.5108,
        "meta_arg_of_pericenter": 18.4003,
        "meta_mean_anomaly": 341.8666,
        "meta_ephemeris_type": 0,
        "meta_classification_type": "U",
        "meta_norad_cat_id": 34728,
        "meta_element_set_no": 999,
        "meta_rev_at_epoch": 89006,
        "meta_bstar": 0.00065234941,
        "meta_mean_motion_dot": 4.022e-05,
        "meta_mean_motion_ddot": 0,
        "tle_line1": "1 34728U 93036YW  25360.76261684  .00004022  00000+0  65235-3 0  9992",
        "tle_line2": "2 34728  74.0156 224.5108 0041745  18.4003 341.8666 14.70962251890062"
      },
      "geometry": {
        "type": "Point",
        "coordinates": [
          55.51314976989222,
          -38.53804726662235
        ]
      }
    },
    {
      "type": "Feature",
      "properties": {
        "norad_id": 34729,
        "name": "COSMOS 2251 DEB",
        "group": "cosmos-2251-debris",
        "lat": 6.035836499961369,
        "lon": 146.67079473749547,
        "alt_km": 621.454812651742,
        "timestamp": "2025-12-27T21:25:02.911851+00:00",
        "meta_object_name": "COSMOS 2251 DEB",
        "meta_object_id": "1993-036YX",
        "meta_epoch": "2025-12-27T04:31:24.449088",
        "meta_mean_motion": 14.83226319,
        "meta_eccentricity": 0.00121376,
        "meta_inclination": 74.0183,
        "meta_ra_of_asc_node": 329.8018,
        "meta_arg_of_pericenter": 81.4706,
        "meta_mean_anomaly": 294.8875,
        "meta_ephemeris_type": 0,
        "meta_classification_type": "U",
        "meta_norad_cat_id": 34729,
        "meta_element_set_no": 999,
        "meta_rev_at_epoch": 88672,
        "meta_bstar": 0.0024708924,
        "meta_mean_motion_dot": 0.00020246,
        "meta_mean_motion_ddot": 0,
        "tle_line1": "1 34729U 93036YX  25361.18847742  .00020246  00000+0  24709-2 0  9991",
        "tle_line2": "2 34729  74.0183 329.8018 0012137  81.4706 294.8875 14.83226319886724"
      },
      "geometry": {
        "type": "Point",
        "coordinates": [
          146.67079473749547,
          6.035836499961369
        ]
      }
    },
    {
      "type": "Feature",
      "properties": {
        "norad_id": 34732,
        "name": "COSMOS 2251 DEB",
        "group": "cosmos-2251-debris",
        "lat": -67.62310024753003,
        "lon": -71.11169143495025,
        "alt_km": 719.8390131740507,
        "timestamp": "2025-12-27T21:25:02.911861+00:00",
        "meta_object_name": "COSMOS 2251 DEB",
        "meta_object_id": "1993-036ZA",
        "meta_epoch": "2025-12-27T03:47:09.341664",
        "meta_mean_motion": 14.47316907,
        "meta_eccentricity": 0.00400123,
        "meta_inclination": 74.0455,
        "meta_ra_of_asc_node": 66.2445,
        "meta_arg_of_pericenter": 214.4956,
        "meta_mean_anomaly": 173.0696,
        "meta_ephemeris_type": 0,
        "meta_classification_type": "U",
        "meta_norad_cat_id": 34732,
        "meta_element_set_no": 999,
        "meta_rev_at_epoch": 88352,
        "meta_bstar": 0.00016138435,
        "meta_mean_motion_dot": 5.69e-06,
        "meta_mean_motion_ddot": 0,
        "tle_line1": "1 34732U 93036ZA  25361.15774701  .00000569  00000+0  16138-3 0  9990",
        "tle_line2": "2 34732  74.0455  66.2445 0040012 214.4956 173.0696 14.47316907883521"
      },
      "geometry": {
        "type": "Point",
        "coordinates": [
          -71.11169143495025,
          -67.62310024753003
        ]
      }
    },
    {
      "type": "Feature",
      "properties": {
        "norad_id": 34736,
        "name": "COSMOS 2251 DEB",
        "group": "cosmos-2251-debris",
        "lat": 67.79088121171485,
        "lon": 138.00987433974498,
        "alt_km": 373.652545505719,
        "timestamp": "2025-12-27T21:25:02.911872+00:00",
        "meta_object_name": "COSMOS 2251 DEB",
        "meta_object_id": "1993-036ZE",
        "meta_epoch": "2025-12-27T07:08:39.911424",
        "meta_mean_motion": 15.62788601,
        "meta_eccentricity": 0.0008307,
        "meta_inclination": 73.9965,
        "meta_ra_of_asc_node": 4.0115,
        "meta_arg_of_pericenter": 336.0819,
        "meta_mean_anomaly": 24.0014,
        "meta_ephemeris_type": 0,
        "meta_classification_type": "U",
        "meta_norad_cat_id": 34736,
        "meta_element_set_no": 999,
        "meta_rev_at_epoch": 88674,
        "meta_bstar": 0.0090031,
        "meta_mean_motion_dot": 0.0089031,
        "meta_mean_motion_ddot": 0,
        "tle_line1": "1 34736U 93036ZE  25361.29768416  .00890310  00000+0  90031-2 0  9999",
        "tle_line2": "2 34736  73.9965   4.0115 0008307 336.0819  24.0014 15.62788601886741"
      },
      "geometry": {
        "type": "Point",
        "coordinates": [
          138.00987433974498,
          67.79088121171485
        ]
      }
    },
    {
      "type": "Feature",
      "properties": {
        "norad_id": 34738,
        "name": "COSMOS 2251 DEB",
        "group": "cosmos-2251-debris",
        "lat": -49.25589012595402,
        "lon": -45.61978969621948,
        "alt_km": 713.7966998667835,
        "timestamp": "2025-12-27T21:25:02.911882+00:00",
        "meta_object_name": "COSMOS 2251 DEB",
        "meta_object_id": "1993-036ZG",
        "meta_epoch": "2025-12-27T02:20:32.699616",
        "meta_mean_motion": 14.46336983,
        "meta_eccentricity": 0.00475977,
        "meta_inclination": 74.0159,
        "meta_ra_of_asc_node": 116.4311,
        "meta_arg_of_pericenter": 260.0922,
        "meta_mean_anomaly": 155.4152,
        "meta_ephemeris_type": 0,
        "meta_classification_type": "U",
        "meta_norad_cat_id": 34738,
        "meta_element_set_no": 999,
        "meta_rev_at_epoch": 88066,
        "meta_bstar": 0.00040900759,
        "meta_mean_motion_dot": 1.46e-05,
        "meta_mean_motion_ddot": 0,
        "tle_line1": "1 34738U 93036ZG  25361.09760069  .00001460  00000+0  40901-3 0  9997",
        "tle_line2": "2 34738  74.0159 116.4311 0047597 260.0922 155.4152 14.46336983880661"
      },
      "geometry": {
        "type": "Point",
        "coordinates": [
          -45.61978969621948,
          -49.25589012595402
        ]
      }
    },
    {
      "type": "Feature",
      "properties": {
        "norad_id": 34750,
        "name": "COSMOS 2251 DEB",
        "group": "cosmos-2251-debris",
        "lat": 46.08830801251839,
        "lon": -24.3134171975735,
        "alt_km": 657.4811623049991,
        "timestamp": "2025-12-27T21:25:02.911892+00:00",
        "meta_object_name": "COSMOS 2251 DEB",
        "meta_object_id": "1993-036ZU",
        "meta_epoch": "2025-12-26T22:22:40.831392",
        "meta_mean_motion": 14.61470505,
        "meta_eccentricity": 0.0038217,
        "meta_inclination": 74.1071,
        "meta_ra_of_asc_node": 174.7283,
        "meta_arg_of_pericenter": 122.8481,
        "meta_mean_anomaly": 359.8296,
        "meta_ephemeris_type": 0,
        "meta_classification_type": "U",
        "meta_norad_cat_id": 34750,
        "meta_element_set_no": 999,
        "meta_rev_at_epoch": 88438,
        "meta_bstar": 0.0014743,
        "meta_mean_motion_dot": 7.361e-05,
        "meta_mean_motion_ddot": 0,
        "tle_line1": "1 34750U 93036ZU  25360.93241703  .00007361  00000+0  14743-2 0  9992",
        "tle_line2": "2 34750  74.1071 174.7283 0038217 122.8481 359.8296 14.61470505884386"
      },
      "geometry": {
        "type": "Point",
        "coordinates": [
          -24.3134171975735,
          46.08830801251839
        ]
      }
    },
    {
      "type": "Feature",
      "properties": {
        "norad_id": 34752,
        "name": "COSMOS 2251 DEB",
        "group": "cosmos-2251-debris",
        "lat": -40.24485720346431,
        "lon": 163.80187954310838,
        "alt_km": 592.7745050559452,
        "timestamp": "2025-12-27T21:25:02.911902+00:00",
        "meta_object_name": "COSMOS 2251 DEB",
        "meta_object_id": "1993-036ZW",
        "meta_epoch": "2025-12-27T07:37:54.456096",
        "meta_mean_motion": 15.0027592,
        "meta_eccentricity": 0.0047567,
        "meta_inclination": 74.0132,
        "meta_ra_of_asc_node": 330.9274,
        "meta_arg_of_pericenter": 94.6976,
        "meta_mean_anomaly": 265.9646,
        "meta_ephemeris_type": 0,
        "meta_classification_type": "U",
        "meta_norad_cat_id": 34752,
        "meta_element_set_no": 999,
        "meta_rev_at_epoch": 90068,
        "meta_bstar": 0.0011458,
        "meta_mean_motion_dot": 0.00014692,
        "meta_mean_motion_ddot": 0,
        "tle_line1": "1 34752U 93036ZW  25361.31799139  .00014692  00000+0  11458-2 0  9993",
        "tle_line2": "2 34752  74.0132 330.9274 0047567  94.6976 265.9646 15.00275920900680"
      },
      "geometry": {
        "type": "Point",
        "coordinates": [
          163.80187954310838,
          -40.24485720346431
        ]
      }
    }
  ]
}